{
    "links": {
        "self": "http://www.neowsapp.com/rest/v1/neo/3843355?api_key=iIulBulltgU6a56xZRHN4H3l9WmuAYTsLGpBGhQ2"
    },
    "id": "3843355",
    "neo_reference_id": "3843355",
    "name": "(2019 OA1)",
    "designation": "2019 OA1",
    "nasa_jpl_url": "http://ssd.jpl.nasa.gov/sbdb.cgi?sstr=3843355",
    "absolute_magnitude_h": 24.3,
    "estimated_diameter": {
        "kilometers": {
            "estimated_diameter_min": 0.0366906138,
            "estimated_diameter_max": 0.0820427065
        },
        "meters": {
            "estimated_diameter_min": 36.6906137531,
            "estimated_diameter_max": 82.0427064882
        },
        "miles": {
            "estimated_diameter_min": 0.0227984834,
            "estimated_diameter_max": 0.0509789586
        },
        "feet": {
            "estimated_diameter_min": 120.3760332259,
            "estimated_diameter_max": 269.1689931548
        }
    },
    "is_potentially_hazardous_asteroid": false,
    "close_approach_data": [
        {
            "close_approach_date": "2019-07-13",
            "close_approach_date_full": "2019-Jul-13 21:08",
            "epoch_date_close_approach": 1563052080000,
            "relative_velocity": {
                "kilometers_per_second": "6.3354001265",
                "kilometers_per_hour": "22807.4404552495",
                "miles_per_hour": "14171.6565428743"
            },
            "miss_distance": {
                "astronomical": "0.1284456338",
                "lunar": "49.9653515482",
                "kilometers": "19215193.227280006",
                "miles": "11939767.4170598428"
            },
            "orbiting_body": "Earth"
        }
    ],
    "orbital_data": {
        "orbit_id": "2",
        "orbit_determination_date": "2019-08-05 05:59:28",
        "first_observation_date": "2019-07-25",
        "last_observation_date": "2019-08-04",
        "data_arc_in_days": 10,
        "observations_used": 19,
        "orbit_uncertainty": "9",
        "minimum_orbit_intersection": ".125734",
        "jupiter_tisserand_invariant": "3.163",
        "epoch_osculation": "2458690.5",
        "eccentricity": ".5629913056225438",
        "semi_major_axis": "2.601570962326537",
        "inclination": "5.546415445864899",
        "ascending_node_longitude": "132.4764264009854",
        "orbital_period": "1532.681592840789",
        "perihelion_distance": "1.136909129576622",
        "perihelion_argument": "157.9064528511961",
        "aphelion_distance": "4.066232795076452",
        "perihelion_time": "2458676.576819215718",
        "mean_anomaly": "3.270310745398369",
        "mean_motion": ".2348824450437541",
        "equinox": "J2000",
        "orbit_class": {
            "orbit_class_type": "AMO",
            "orbit_class_description": "Near-Earth asteroid orbits similar to that of 1221 Amor",
            "orbit_class_range": "1.017 AU < q (perihelion) < 1.3 AU"
        }
    },
    "is_sentry_object": false
}